start=new Date('2023-05-21T00:00:00.000Z').valueOf();
sats=[{"INCLINATION":"53.2172","ECCENTRICITY":"0.00012140","RCS_SIZE":"LARGE","CENTER_NAME":"EARTH","DECAY_DATE":null,"MEAN_MOTION":"15.08843084","GP_ID":"232207794","FILE":"3913175","SITE":"AFETR","OBJECT_NAME":"STARLINK-3329","ELEMENT_SET_NO":"999","OBJECT_TYPE":"PAYLOAD","PERIAPSIS":"538.896","ARG_OF_PERICENTER":"92.2024","MEAN_MOTION_DOT":"0.00001285","NORAD_CAT_ID":"50827","APOAPSIS":"540.576","COUNTRY_CODE":"US","LAUNCH_DATE":"2022-01-06","TIME_SYSTEM":"UTC","RA_OF_ASC_NODE":"88.1287","SEMIMAJOR_AXIS":"6917.871","REV_AT_EPOCH":"7574","MEAN_ANOMALY":"267.9107","REF_FRAME":"TEME","TLE_LINE1":"1 50827U 22001AA  23140.22273600  .00001285  00000-0  98814-4 0  9999","MEAN_MOTION_DDOT":"0.0000000000000","BSTAR":"0.00009881400000","CLASSIFICATION_TYPE":"U","MEAN_ELEMENT_THEORY":"SGP4","TLE_LINE2":"2 50827  53.2172  88.1287 0001214  92.2024 267.9107 15.08843084 75741","EPOCH":"2023-05-20T05:20:44.390400","OBJECT_ID":"2022-001AA","PERIOD":"95.437","EPHEMERIS_TYPE":"0"},{"EPHEMERIS_TYPE":"0","OBJECT_ID":"2022-001AB","PERIOD":"95.437","EPOCH":"2023-05-20T06:36:16.947360","TLE_LINE2":"2 50828  53.2180  87.7810 0001008  93.6803 266.4304 15.08844122 75601","MEAN_ELEMENT_THEORY":"SGP4","CLASSIFICATION_TYPE":"U","TLE_LINE1":"1 50828U 22001AB  23140.27519615  .00000785  00000-0  67413-4 0  9999","MEAN_MOTION_DDOT":"0.0000000000000","BSTAR":"0.00006741300000","REF_FRAME":"TEME","MEAN_ANOMALY":"266.4304","SEMIMAJOR_AXIS":"6917.868","REV_AT_EPOCH":"7560","RA_OF_ASC_NODE":"87.7810","TIME_SYSTEM":"UTC","LAUNCH_DATE":"2022-01-06","COUNTRY_CODE":"US","APOAPSIS":"540.430","NORAD_CAT_ID":"50828","MEAN_MOTION_DOT":"0.00000785","ARG_OF_PERICENTER":"93.6803","PERIAPSIS":"539.035","OBJECT_TYPE":"PAYLOAD","ELEMENT_SET_NO":"999","OBJECT_NAME":"STARLINK-3290","SITE":"AFETR","FILE":"3913175","MEAN_MOTION":"15.08844122","GP_ID":"232208545","DECAY_DATE":null,"RCS_SIZE":"LARGE","CENTER_NAME":"EARTH","ECCENTRICITY":"0.00010080","INCLINATION":"53.2180"},{"ARG_OF_PERICENTER":"95.7908","MEAN_MOTION_DOT":"0.00001336","OBJECT_TYPE":"PAYLOAD","PERIAPSIS":"538.924","OBJECT_NAME":"STARLINK-3294","ELEMENT_SET_NO":"999","INCLINATION":"53.2180","ECCENTRICITY":"0.00011710","RCS_SIZE":"LARGE","CENTER_NAME":"EARTH","DECAY_DATE":null,"GP_ID":"232208791","MEAN_MOTION":"15.08843613","FILE":"3913175","SITE":"AFETR","TLE_LINE2":"2 50829  53.2180  88.0939 0001171  95.7908 264.3218 15.08843613 75748","EPOCH":"2023-05-20T05:31:20.200224","PERIOD":"95.437","OBJECT_ID":"2022-001AC","EPHEMERIS_TYPE":"0","TLE_LINE1":"1 50829U 22001AC  23140.23009491  .00001336  00000-0  10197-3 0  9991","BSTAR":"0.00010197000000","MEAN_MOTION_DDOT":"0.0000000000000","CLASSIFICATION_TYPE":"U","MEAN_ELEMENT_THEORY":"SGP4","TIME_SYSTEM":"UTC","RA_OF_ASC_NODE":"88.0939","SEMIMAJOR_AXIS":"6917.869","REV_AT_EPOCH":"7574","MEAN_ANOMALY":"264.3218","REF_FRAME":"TEME","NORAD_CAT_ID":"50829","APOAPSIS":"540.544","COUNTRY_CODE":"US","LAUNCH_DATE":"2022-01-06"},{"ELEMENT_SET_NO":"999","OBJECT_NAME":"STARLINK-3278","MEAN_MOTION":"15.08837460","GP_ID":"232209541","SITE":"AFETR","FILE":"3913175","ECCENTRICITY":"0.00011900","INCLINATION":"53.2169","DECAY_DATE":null,"RCS_SIZE":"LARGE","CENTER_NAME":"EARTH","MEAN_MOTION_DOT":"0.00000306","ARG_OF_PERICENTER":"99.7511","OBJECT_TYPE":"PAYLOAD","PERIAPSIS":"538.930","MEAN_ANOMALY":"260.3615","REV_AT_EPOCH":"7560","SEMIMAJOR_AXIS":"6917.888","REF_FRAME":"TEME","RA_OF_ASC_NODE":"98.3207","TIME_SYSTEM":"UTC","COUNTRY_CODE":"US","NORAD_CAT_ID":"50830","APOAPSIS":"540.576","LAUNCH_DATE":"2022-01-06","OBJECT_ID":"2022-001AD","PERIOD":"95.438","EPHEMERIS_TYPE":"0","TLE_LINE2":"2 50830  53.2169  98.3207 0001190  99.7511 260.3615 15.08837460 75609","EPOCH":"2023-05-20T04:21:07.528032","CLASSIFICATION_TYPE":"U","MEAN_ELEMENT_THEORY":"SGP4","TLE_LINE1":"1 50830U 22001AD  23140.18133713  .00000306  00000-0  37309-4 0  9993","MEAN_MOTION_DDOT":"0.0000000000000","BSTAR":"0.00003730900000"},{"ARG_OF_PERICENTER":"102.2543","MEAN_MOTION_DOT":"0.00003305","OBJECT_TYPE":"PAYLOAD","PERIAPSIS":"538.899","OBJECT_NAME":"STARLINK-3299","ELEMENT_SET_NO":"999","DECAY_DATE":null,"RCS_SIZE":"LARGE","CENTER_NAME":"EARTH","INCLINATION":"53.2169","ECCENTRICITY":"0.00012000","SITE":"AFETR","FILE":"3913175","GP_ID":"232207295","MEAN_MOTION":"15.08845229","EPOCH":"2023-05-20T06:13:44.372640","TLE_LINE2":"2 50831  53.2169  88.0274 0001200 102.2543 257.8584 15.08845229 75751","EPHEMERIS_TYPE":"0","PERIOD":"95.437","OBJECT_ID":"2022-001AE","BSTAR":"0.00022558000000","TLE_LINE1":"1 50831U 22001AE  23140.25954135  .00003305  00000-0  22558-3 0  9992","MEAN_MOTION_DDOT":"0.0000000000000","MEAN_ELEMENT_THEORY":"SGP4","CLASSIFICATION_TYPE":"U","RA_OF_ASC_NODE":"88.0274","TIME_SYSTEM":"UTC","REF_FRAME":"TEME","MEAN_ANOMALY":"257.8584","REV_AT_EPOCH":"7575","SEMIMAJOR_AXIS":"6917.864","LAUNCH_DATE":"2022-01-06","COUNTRY_CODE":"US","APOAPSIS":"540.560","NORAD_CAT_ID":"50831"},{"OBJECT_TYPE":"PAYLOAD","PERIAPSIS":"538.909","ARG_OF_PERICENTER":"87.9009","MEAN_MOTION_DOT":"0.00001002","RCS_SIZE":"LARGE","CENTER_NAME":"EARTH","DECAY_DATE":null,"ECCENTRICITY":"0.00011890","INCLINATION":"53.2173","FILE":"3913175","SITE":"AFETR","MEAN_MOTION":"15.08844615","GP_ID":"232208046","OBJECT_NAME":"STARLINK-3328","ELEMENT_SET_NO":"999","BSTAR":"0.00008101900000","TLE_LINE1":"1 50832U 22001AF  23140.31013295  .00001002  00000-0  81019-4 0  9993","MEAN_MOTION_DDOT":"0.0000000000000","MEAN_ELEMENT_THEORY":"SGP4","CLASSIFICATION_TYPE":"U","EPOCH":"2023-05-20T07:26:35.486880","TLE_LINE2":"2 50832  53.2173  97.7349 0001189  87.9009 272.2120 15.08844615 75620","EPHEMERIS_TYPE":"0","PERIOD":"95.437","OBJECT_ID":"2022-001AF","LAUNCH_DATE":"2022-01-06","APOAPSIS":"540.554","NORAD_CAT_ID":"50832","COUNTRY_CODE":"US","TIME_SYSTEM":"UTC","RA_OF_ASC_NODE":"97.7349","REF_FRAME":"TEME","SEMIMAJOR_AXIS":"6917.866","REV_AT_EPOCH":"7562","MEAN_ANOMALY":"272.2120"},{"MEAN_MOTION":"15.18364526","GP_ID":"232172980","SITE":"AFETR","FILE":"3912587","ECCENTRICITY":"0.00021740","INCLINATION":"53.2183","DECAY_DATE":null,"RCS_SIZE":"LARGE","CENTER_NAME":"EARTH","ELEMENT_SET_NO":"999","OBJECT_NAME":"STARLINK-3316","PERIAPSIS":"509.287","OBJECT_TYPE":"PAYLOAD","MEAN_MOTION_DOT":"-0.00009110","ARG_OF_PERICENTER":"80.7306","COUNTRY_CODE":"US","APOAPSIS":"512.283","NORAD_CAT_ID":"50833","LAUNCH_DATE":"2022-01-06","MEAN_ANOMALY":"279.3936","REV_AT_EPOCH":"7710","SEMIMAJOR_AXIS":"6888.920","REF_FRAME":"TEME","RA_OF_ASC_NODE":"83.8527","TIME_SYSTEM":"UTC","CLASSIFICATION_TYPE":"U","MEAN_ELEMENT_THEORY":"SGP4","MEAN_MOTION_DDOT":"0.0000000000000","TLE_LINE1":"1 50833U 22001AG  23140.15049814 -.00009110  00000-0 -42328-3 0  9991","BSTAR":"-0.00042328000000","PERIOD":"94.839","OBJECT_ID":"2022-001AG","EPHEMERIS_TYPE":"0","TLE_LINE2":"2 50833  53.2183  83.8527 0002174  80.7306 279.3936 15.18364526 77109","EPOCH":"2023-05-20T03:36:43.039296"},{"OBJECT_TYPE":"PAYLOAD","PERIAPSIS":"538.950","ARG_OF_PERICENTER":"89.9574","MEAN_MOTION_DOT":"0.00001636","INCLINATION":"53.2161","ECCENTRICITY":"0.00011200","RCS_SIZE":"LARGE","CENTER_NAME":"EARTH","DECAY_DATE":null,"MEAN_MOTION":"15.08846850","GP_ID":"232209042","FILE":"3913175","SITE":"AFETR","OBJECT_NAME":"STARLINK-3331","ELEMENT_SET_NO":"999","MEAN_MOTION_DDOT":"0.0000000000000","TLE_LINE1":"1 50834U 22001AH  23140.29908921  .00001636  00000-0  12085-3 0  9990","BSTAR":"0.00012085000000","CLASSIFICATION_TYPE":"U","MEAN_ELEMENT_THEORY":"SGP4","TLE_LINE2":"2 50834  53.2161  97.7869 0001120  89.9574 270.1547 15.08846850 75612","EPOCH":"2023-05-20T07:10:41.307744","OBJECT_ID":"2022-001AH","PERIOD":"95.437","EPHEMERIS_TYPE":"0","NORAD_CAT_ID":"50834","APOAPSIS":"540.499","COUNTRY_CODE":"US","LAUNCH_DATE":"2022-01-06","TIME_SYSTEM":"UTC","RA_OF_ASC_NODE":"97.7869","SEMIMAJOR_AXIS":"6917.859","REV_AT_EPOCH":"7561","MEAN_ANOMALY":"270.1547","REF_FRAME":"TEME"},{"OBJECT_TYPE":"PAYLOAD","PERIAPSIS":"538.903","MEAN_MOTION_DOT":"0.00001228","ARG_OF_PERICENTER":"95.9551","MEAN_MOTION":"15.08846866","GP_ID":"232207795","FILE":"3913175","SITE":"AFETR","INCLINATION":"53.2169","ECCENTRICITY":"0.00011880","CENTER_NAME":"EARTH","RCS_SIZE":"LARGE","DECAY_DATE":null,"ELEMENT_SET_NO":"999","OBJECT_NAME":"STARLINK-3310","CLASSIFICATION_TYPE":"U","MEAN_ELEMENT_THEORY":"SGP4","BSTAR":"0.00009521700000","TLE_LINE1":"1 50835U 22001AJ  23140.29268979  .00001228  00000-0  95217-4 0  9999","MEAN_MOTION_DDOT":"0.0000000000000","PERIOD":"95.437","OBJECT_ID":"2022-001AJ","EPHEMERIS_TYPE":"0","TLE_LINE2":"2 50835  53.2169  97.8220 0001188  95.9551 264.1577 15.08846866 75612","EPOCH":"2023-05-20T07:01:28.397856","APOAPSIS":"540.546","NORAD_CAT_ID":"50835","COUNTRY_CODE":"US","LAUNCH_DATE":"2022-01-06","REV_AT_EPOCH":"7561","SEMIMAJOR_AXIS":"6917.859","MEAN_ANOMALY":"264.1577","REF_FRAME":"TEME","TIME_SYSTEM":"UTC","RA_OF_ASC_NODE":"97.8220"},{"ARG_OF_PERICENTER":"96.5530","MEAN_MOTION_DOT":"0.00001083","OBJECT_TYPE":"PAYLOAD","PERIAPSIS":"538.907","OBJECT_NAME":"STARLINK-3330","ELEMENT_SET_NO":"999","INCLINATION":"53.2169","ECCENTRICITY":"0.00012010","DECAY_DATE":null,"RCS_SIZE":"LARGE","CENTER_NAME":"EARTH","MEAN_MOTION":"15.08842429","GP_ID":"232172848","SITE":"AFETR","FILE":"3912590","TLE_LINE2":"2 50836  53.2169  98.3599 0001201  96.5530 263.5599 15.08842429 76853","EPOCH":"2023-05-20T04:05:13.571808","OBJECT_ID":"2022-001AK","PERIOD":"95.437","EPHEMERIS_TYPE":"0","TLE_LINE1":"1 50836U 22001AK  23140.17029597  .00001083  00000-0  86128-4 0  9998","BSTAR":"0.00008612800000","MEAN_MOTION_DDOT":"0.0000000000000","CLASSIFICATION_TYPE":"U","MEAN_ELEMENT_THEORY":"SGP4","RA_OF_ASC_NODE":"98.3599","TIME_SYSTEM":"UTC","MEAN_ANOMALY":"263.5599","REV_AT_EPOCH":"7685","SEMIMAJOR_AXIS":"6917.873","REF_FRAME":"TEME","COUNTRY_CODE":"US","APOAPSIS":"540.569","NORAD_CAT_ID":"50836","LAUNCH_DATE":"2022-01-06"}];
